STARLINK-3101
1 29168C 21082AQ  21325.18289569  .00022991  00000-0  19229-3 0  3254
2 29168  69.9974 295.4947 0003934 285.0701 146.6543 15.69759734    12
